[{"OBJECT_NAME":"SAUDICOMSAT 1","OBJECT_ID":"2004-025D","EPOCH":"2026-03-09T22:47:58.064640","MEAN_MOTION":14.5538941,"ECCENTRICITY":0.00315786,"INCLINATION":98.5809,"RA_OF_ASC_NODE":76.3919,"ARG_OF_PERICENTER":329.4407,"MEAN_ANOMALY":30.4949,"EPHEMERIS_TYPE":0,"CLASSIFICATION_TYPE":"U","NORAD_CAT_ID":28369,"ELEMENT_SET_NO":999,"REV_AT_EPOCH":14969,"BSTAR":0.00015560401,"MEAN_MOTION_DOT":6.3e-6,"MEAN_MOTION_DDOT":0},{"OBJECT_NAME":"UNKNOWN","OBJECT_ID":"","EPOCH":"2026-03-07T00:47:45.141504","MEAN_MOTION":14.49365058,"ECCENTRICITY":0.00155106,"INCLINATION":98.9253,"RA_OF_ASC_NODE":93.3626,"ARG_OF_PERICENTER":174.5136,"MEAN_ANOMALY":185.6229,"EPHEMERIS_TYPE":0,"CLASSIFICATION_TYPE":"U","NORAD_CAT_ID":270302,"ELEMENT_SET_NO":999,"REV_AT_EPOCH":25890,"BSTAR":0.0016405996,"MEAN_MOTION_DOT":6.234e-5,"MEAN_MOTION_DDOT":0}]
